QIANFAN-73              
1 63159U 25046A   25217.51032647  .00000126  00000+0  17551-3 0  9996
2 63159  88.9860 333.3407 0016670 134.0162 226.2366 13.50959474 29965
QIANFAN-74              
1 63160U 25046B   25217.56796623  .00000138  00000+0  19539-3 0  9995
2 63160  88.9860 333.2233 0001955 103.6363 256.5006 13.50964082 30036
QIANFAN-75              
1 63161U 25046C   25217.18532231  .00000128  00000+0  17992-3 0  9997
2 63161  88.9860 333.4943 0017774 137.9441 222.3078 13.50960386 29851
QIANFAN-76              
1 63162U 25046D   25217.18104334  .00000150  00000+0  21289-3 0  9996
2 63162  88.9860 333.4759 0015333 137.9647 222.2684 13.50956603 29864
QIANFAN-77              
1 63163U 25046E   25217.16932884  .00000358  00000+0  25102-3 0  9992
2 63163  88.9858 332.5463 0016787 122.4728 237.8074 13.96007831 30370
QIANFAN-78              
1 63164U 25046F   25216.85199250  .00000137  00000+0  19406-3 0  9995
2 63164  88.9859 333.3750 0016635 141.2745 218.9602 13.50959793 29895
QIANFAN-79              
1 63165U 25046G   25217.17697010  .00000151  00000+0  21508-3 0  9991
2 63165  88.9863 333.4442 0016367 138.8438 221.3951 13.50962037 29893
QIANFAN-80              
1 63166U 25046H   25217.56386939  .00000131  00000+0  18418-3 0  9994
2 63166  88.9861 333.1151 0015310 141.4586 218.7661 13.50962243 30098
